{"type": "FeatureCollection", "features": [ {"type": "Feature", "properties": {"norad_id": 35480, "name": "IRIDIUM 33 DEB", "group": "iridium-33-debris", "lat": 8.280816756550513, "lon": 22.4249758464912, "alt_km": 725.1312257584605, "timestamp": "2025-12-19T16:54:44.647668+00:00", "meta": {"OBJECT_NAME": "IRIDIUM 33 DEB", "OBJECT_ID": "1997-051QA", "EPOCH": "2025-12-15T08:30:57.118464", "MEAN_MOTION": 14.49774703, "ECCENTRICITY": 0.00160032, "INCLINATION": 86.3571, "RA_OF_ASC_NODE": 23.7786, "ARG_OF_PERICENTER": 97.0457, "MEAN_ANOMALY": 263.2568, "EPHEMERIS_TYPE": 0, "CLASSIFICATION_TYPE": "U", "NORAD_CAT_ID": 35480, "ELEMENT_SET_NO": 999, "REV_AT_EPOCH": 87069, "BSTAR": 0.00045738518, "MEAN_MOTION_DOT": 1.785e-05, "MEAN_MOTION_DDOT": 0}, "tle": {"line1": "1 35480U 97051QA  25349.35482776  .00001785  00000+0  45739-3 0  9998", "line2": "2 35480  86.3571  23.7786 0016003  97.0457 263.2568 14.49774703870695"}}, "geometry": {"type": "Point", "coordinates": [22.4249758464912, 8.280816756550513]}}, {"type": "Feature", "properties": {"norad_id": 35484, "name": "IRIDIUM 33 DEB", "group": "iridium-33-debris", "lat": -33.00185504191624, "lon": -12.881786174994327, "alt_km": 586.0797888417792, "timestamp": "2025-12-19T16:54:44.647678+00:00", "meta": {"OBJECT_NAME": "IRIDIUM 33 DEB", "OBJECT_ID": "1997-051QE", "EPOCH": "2025-12-13T07:15:48.307680", "MEAN_MOTION": 14.98714194, "ECCENTRICITY": 0.00237352, "INCLINATION": 86.3615, "RA_OF_ASC_NODE": 352.4822, "ARG_OF_PERICENTER": 123.3819, "MEAN_ANOMALY": 236.9688, "EPHEMERIS_TYPE": 0, "CLASSIFICATION_TYPE": "U", "NORAD_CAT_ID": 35484, "ELEMENT_SET_NO": 999, "REV_AT_EPOCH": 62024, "BSTAR": 0.0048114888, "MEAN_MOTION_DOT": 0.00058609, "MEAN_MOTION_DDOT": 0}, "tle": {"line1": "1 35484U 97051QE  25347.30264245  .00058609  00000+0  48115-2 0  9991", "line2": "2 35484  86.3615 352.4822 0023735 123.3819 236.9688 14.98714194620242"}}, "geometry": {"type": "Point", "coordinates": [-12.881786174994327, -33.00185504191624]}}, {"type": "Feature", "properties": {"norad_id": 35488, "name": "IRIDIUM 33 DEB", "group": "iridium-33-debris", "lat": 38.35713080890776, "lon": -59.41738804329536, "alt_km": 597.094045827831, "timestamp": "2025-12-19T16:54:44.647689+00:00", "meta": {"OBJECT_NAME": "IRIDIUM 33 DEB", "OBJECT_ID": "1997-051QJ", "EPOCH": "2025-12-18T06:44:16.731744", "MEAN_MOTION": 14.83196659, "ECCENTRICITY": 0.00291507, "INCLINATION": 86.3243, "RA_OF_ASC_NODE": 298.3231, "ARG_OF_PERICENTER": 24.8223, "MEAN_ANOMALY": 335.4395, "EPHEMERIS_TYPE": 0, "CLASSIFICATION_TYPE": "U", "NORAD_CAT_ID": 35488, "ELEMENT_SET_NO": 999, "REV_AT_EPOCH": 88348, "BSTAR": 0.0014098178, "MEAN_MOTION_DOT": 0.00011627, "MEAN_MOTION_DDOT": 0}, "tle": {"line1": "1 35488U 97051QJ  25352.28074921  .00011627  00000+0  14098-2 0  9990", "line2": "2 35488  86.3243 298.3231 0029150  24.8223 335.4395 14.83196659883487"}}, "geometry": {"type": "Point", "coordinates": [-59.41738804329536, 38.35713080890776]}}, {"type": "Feature", "properties": {"norad_id": 35616, "name": "IRIDIUM 33 DEB", "group": "iridium-33-debris", "lat": 13.331168594621506, "lon": 161.71966486954727, "alt_km": 617.3730893059183, "timestamp": "2025-12-19T16:54:44.647699+00:00", "meta": {"OBJECT_NAME": "IRIDIUM 33 DEB", "OBJECT_ID": "1997-051QN", "EPOCH": "2025-12-19T06:26:26.768832", "MEAN_MOTION": 14.81969913, "ECCENTRICITY": 0.00110786, "INCLINATION": 86.3543, "RA_OF_ASC_NODE": 342.7845, "ARG_OF_PERICENTER": 141.4908, "MEAN_ANOMALY": 218.7107, "EPHEMERIS_TYPE": 0, "CLASSIFICATION_TYPE": "U", "NORAD_CAT_ID": 35616, "ELEMENT_SET_NO": 999, "REV_AT_EPOCH": 87671, "BSTAR": 0.0011657498, "MEAN_MOTION_DOT": 9.278e-05, "MEAN_MOTION_DDOT": 0}, "tle": {"line1": "1 35616U 97051QN  25353.26836538  .00009278  00000+0  11657-2 0  9999", "line2": "2 35616  86.3543 342.7845 0011078 141.4908 218.7107 14.81969913876715"}}, "geometry": {"type": "Point", "coordinates": [161.71966486954727, 13.331168594621506]}}, {"type": "Feature", "properties": {"norad_id": 35618, "name": "IRIDIUM 33 DEB", "group": "iridium-33-debris", "lat": -86.15264874049608, "lon": -81.54403794555536, "alt_km": 724.2257711905531, "timestamp": "2025-12-19T16:54:44.647710+00:00", "meta": {"OBJECT_NAME": "IRIDIUM 33 DEB", "OBJECT_ID": "1997-051QQ", "EPOCH": "2025-12-13T19:06:39.662496", "MEAN_MOTION": 14.52305973, "ECCENTRICITY": 0.00288889, "INCLINATION": 86.3427, "RA_OF_ASC_NODE": 353.0427, "ARG_OF_PERICENTER": 17.6332, "MEAN_ANOMALY": 342.5869, "EPHEMERIS_TYPE": 0, "CLASSIFICATION_TYPE": "U", "NORAD_CAT_ID": 35618, "ELEMENT_SET_NO": 999, "REV_AT_EPOCH": 65409, "BSTAR": 0.0005678553, "MEAN_MOTION_DOT": 2.341e-05, "MEAN_MOTION_DDOT": 0}, "tle": {"line1": "1 35618U 97051QQ  25347.79629239  .00002341  00000+0  56786-3 0  9997", "line2": "2 35618  86.3427 353.0427 0028888  17.6332 342.5869 14.52305973654095"}}, "geometry": {"type": "Point", "coordinates": [-81.54403794555536, -86.15264874049608]}}, {"type": "Feature", "properties": {"norad_id": 35620, "name": "IRIDIUM 33 DEB", "group": "iridium-33-debris", "lat": -80.03162918324855, "lon": 55.56133340743899, "alt_km": 680.9265725164814, "timestamp": "2025-12-19T16:54:44.647720+00:00", "meta": {"OBJECT_NAME": "IRIDIUM 33 DEB", "OBJECT_ID": "1997-051QS", "EPOCH": "2025-12-18T07:58:30.597312", "MEAN_MOTION": 14.38231155, "ECCENTRICITY": 0.01396071, "INCLINATION": 86.3909, "RA_OF_ASC_NODE": 215.0948, "ARG_OF_PERICENTER": 240.37, "MEAN_ANOMALY": 118.3533, "EPHEMERIS_TYPE": 0, "CLASSIFICATION_TYPE": "U", "NORAD_CAT_ID": 35620, "ELEMENT_SET_NO": 999, "REV_AT_EPOCH": 60046, "BSTAR": 0.0042608437, "MEAN_MOTION_DOT": 0.00014532, "MEAN_MOTION_DDOT": 0}, "tle": {"line1": "1 35620U 97051QS  25352.33229858  .00014532  00000+0  42608-2 0  9991", "line2": "2 35620  86.3909 215.0948 0139607 240.3700 118.3533 14.38231155600467"}}, "geometry": {"type": "Point", "coordinates": [55.56133340743899, -80.03162918324855]}}, {"type": "Feature", "properties": {"norad_id": 35622, "name": "IRIDIUM 33 DEB", "group": "iridium-33-debris", "lat": -41.207004679473606, "lon": 83.50476955759642, "alt_km": 556.1545745083095, "timestamp": "2025-12-19T16:54:44.647737+00:00", "meta": {"OBJECT_NAME": "IRIDIUM 33 DEB", "OBJECT_ID": "1997-051QU", "EPOCH": "2025-12-19T05:20:54.669408", "MEAN_MOTION": 15.05391497, "ECCENTRICITY": 0.00045227, "INCLINATION": 86.2027, "RA_OF_ASC_NODE": 260.4082, "ARG_OF_PERICENTER": 299.3181, "MEAN_ANOMALY": 192.4503, "EPHEMERIS_TYPE": 0, "CLASSIFICATION_TYPE": "U", "NORAD_CAT_ID": 35622, "ELEMENT_SET_NO": 999, "REV_AT_EPOCH": 87457, "BSTAR": 0.0026049351, "MEAN_MOTION_DOT": 0.0003752, "MEAN_MOTION_DDOT": 0}, "tle": {"line1": "1 35622U 97051QU  25353.22285497  .00037520  00000+0  26049-2 0  9996", "line2": "2 35622  86.2027 260.4082 0004522 299.3181 192.4503 15.05391497874572"}}, "geometry": {"type": "Point", "coordinates": [83.50476955759642, -41.207004679473606]}}, {"type": "Feature", "properties": {"norad_id": 35628, "name": "IRIDIUM 33 DEB", "group": "iridium-33-debris", "lat": -12.259267477904565, "lon": -173.23733035906199, "alt_km": 677.0060091692676, "timestamp": "2025-12-19T16:54:44.647758+00:00", "meta": {"OBJECT_NAME": "IRIDIUM 33 DEB", "OBJECT_ID": "1997-051RA", "EPOCH": "2025-12-18T07:18:45.213408", "MEAN_MOTION": 14.6766102, "ECCENTRICITY": 0.00098417, "INCLINATION": 86.3567, "RA_OF_ASC_NODE": 6.5937, "ARG_OF_PERICENTER": 321.9777, "MEAN_ANOMALY": 38.0742, "EPHEMERIS_TYPE": 0, "CLASSIFICATION_TYPE": "U", "NORAD_CAT_ID": 35628, "ELEMENT_SET_NO": 999, "REV_AT_EPOCH": 86528, "BSTAR": 0.0011340632, "MEAN_MOTION_DOT": 6.475e-05, "MEAN_MOTION_DDOT": 0}, "tle": {"line1": "1 35628U 97051RA  25352.30468997  .00006475  00000+0  11341-2 0  9992", "line2": "2 35628  86.3567   6.5937 0009841 321.9777  38.0742 14.67661020865285"}}, "geometry": {"type": "Point", "coordinates": [-173.23733035906199, -12.259267477904565]}}, {"type": "Feature", "properties": {"norad_id": 35631, "name": "IRIDIUM 33 DEB", "group": "iridium-33-debris", "lat": -60.18824948476069, "lon": 11.610682443685928, "alt_km": 754.1179590411539, "timestamp": "2025-12-19T16:54:44.647779+00:00", "meta": {"OBJECT_NAME": "IRIDIUM 33 DEB", "OBJECT_ID": "1997-051RD", "EPOCH": "2025-12-17T02:23:33.513216", "MEAN_MOTION": 14.47323174, "ECCENTRICITY": 0.00191499, "INCLINATION": 86.3669, "RA_OF_ASC_NODE": 19.0985, "ARG_OF_PERICENTER": 104.9158, "MEAN_ANOMALY": 310.5558, "EPHEMERIS_TYPE": 0, "CLASSIFICATION_TYPE": "U", "NORAD_CAT_ID": 35631, "ELEMENT_SET_NO": 999, "REV_AT_EPOCH": 87260, "BSTAR": 0.00028519596, "MEAN_MOTION_DOT": 1.066e-05, "MEAN_MOTION_DDOT": 0}, "tle": {"line1": "1 35631U 97051RD  25351.09969344  .00001066  00000+0  28520-3 0  9992", "line2": "2 35631  86.3669  19.0985 0019149 104.9158 310.5558 14.47323174872608"}}, "geometry": {"type": "Point", "coordinates": [11.610682443685928, -60.18824948476069]}}, {"type": "Feature", "properties": {"norad_id": 35680, "name": "IRIDIUM 33 DEB", "group": "iridium-33-debris", "lat": -27.230419184427255, "lon": 16.42880780905616, "alt_km": 801.0103923763681, "timestamp": "2025-12-19T16:54:44.647797+00:00", "meta": {"OBJECT_NAME": "IRIDIUM 33 DEB", "OBJECT_ID": "1997-051RJ", "EPOCH": "2025-12-17T20:16:19.922592", "MEAN_MOTION": 14.21000805, "ECCENTRICITY": 0.01505036, "INCLINATION": 86.1025, "RA_OF_ASC_NODE": 19.2625, "ARG_OF_PERICENTER": 262.1515, "MEAN_ANOMALY": 279.7609, "EPHEMERIS_TYPE": 0, "CLASSIFICATION_TYPE": "U", "NORAD_CAT_ID": 35680, "ELEMENT_SET_NO": 999, "REV_AT_EPOCH": 60773, "BSTAR": 0.0028027984, "MEAN_MOTION_DOT": 6.829e-05, "MEAN_MOTION_DDOT": 0}, "tle": {"line1": "1 35680U 97051RJ  25351.84467503  .00006829  00000+0  28028-2 0  9993", "line2": "2 35680  86.1025  19.2625 0150503 262.1515 279.7609 14.21000805607731"}}, "geometry": {"type": "Point", "coordinates": [16.42880780905616, -27.230419184427255]}}]}